start=new Date('2022-09-22T00:00:00.000Z').valueOf();
sats=[{"APOAPSIS":"548.074","MEAN_MOTION_DDOT":"0.0000000000000","ECCENTRICITY":"0.00012110","TLE_LINE1":"1 45559U 20025AE  22264.68042144 -.00000639  00000-0 -23999-4 0  9998","REV_AT_EPOCH":"13470","EPHEMERIS_TYPE":"0","REF_FRAME":"TEME","NORAD_CAT_ID":"45559","FILE":"3579752","MEAN_MOTION":"15.06393027","RA_OF_ASC_NODE":"5.4043","CENTER_NAME":"EARTH","MEAN_MOTION_DOT":"-0.00000639","INCLINATION":"53.0567","COUNTRY_CODE":"US","SEMIMAJOR_AXIS":"6925.370","MEAN_ELEMENT_THEORY":"SGP4","MEAN_ANOMALY":"287.9278","LAUNCH_DATE":"2020-04-22","EPOCH":"2022-09-21T16:19:48.412416","PERIOD":"95.593","PERIAPSIS":"546.396","OBJECT_NAME":"STARLINK-1344","DECAY_DATE":null,"CLASSIFICATION_TYPE":"U","BSTAR":"-0.00002399900000","ARG_OF_PERICENTER":"72.1843","OBJECT_ID":"2020-025AE","GP_ID":"213187544","TLE_LINE2":"2 45559  53.0567   5.4043 0001211  72.1843 287.9278 15.06393027134706","ELEMENT_SET_NO":"999","SITE":"AFETR","TIME_SYSTEM":"UTC","RCS_SIZE":"LARGE","OBJECT_TYPE":"PAYLOAD"},{"BSTAR":"0.00001586300000","ARG_OF_PERICENTER":"82.0270","OBJECT_ID":"2020-025AF","GP_ID":"213188796","DECAY_DATE":null,"CLASSIFICATION_TYPE":"U","OBJECT_NAME":"STARLINK-1346","PERIAPSIS":"546.234","OBJECT_TYPE":"PAYLOAD","RCS_SIZE":"LARGE","ELEMENT_SET_NO":"999","TIME_SYSTEM":"UTC","SITE":"AFETR","TLE_LINE2":"2 45560  53.0570 355.2127 0001440  82.0270 278.0883 15.06394076134853","MEAN_MOTION_DDOT":"0.0000000000000","ECCENTRICITY":"0.00014400","TLE_LINE1":"1 45560U 20025AF  22264.73663282 -.00000045  00000-0  15863-4 0  9999","REV_AT_EPOCH":"13485","APOAPSIS":"548.229","LAUNCH_DATE":"2020-04-22","PERIOD":"95.593","EPOCH":"2022-09-21T17:40:45.075648","INCLINATION":"53.0570","COUNTRY_CODE":"US","SEMIMAJOR_AXIS":"6925.367","MEAN_ANOMALY":"278.0883","MEAN_ELEMENT_THEORY":"SGP4","FILE":"3579752","MEAN_MOTION":"15.06394076","NORAD_CAT_ID":"45560","RA_OF_ASC_NODE":"355.2127","CENTER_NAME":"EARTH","MEAN_MOTION_DOT":"-0.00000045","EPHEMERIS_TYPE":"0","REF_FRAME":"TEME"},{"OBJECT_TYPE":"PAYLOAD","RCS_SIZE":"LARGE","TIME_SYSTEM":"UTC","SITE":"AFETR","ELEMENT_SET_NO":"999","TLE_LINE2":"2 45561  53.0532 268.6105 0002435  72.7194 287.4066 15.16705662136072","GP_ID":"213188538","OBJECT_ID":"2020-025AG","ARG_OF_PERICENTER":"72.7194","BSTAR":"0.00101780000000","CLASSIFICATION_TYPE":"U","DECAY_DATE":null,"OBJECT_NAME":"STARLINK-1348","PERIAPSIS":"514.128","PERIOD":"94.943","EPOCH":"2022-09-21T17:51:23.785056","LAUNCH_DATE":"2020-04-22","SEMIMAJOR_AXIS":"6893.942","MEAN_ELEMENT_THEORY":"SGP4","MEAN_ANOMALY":"287.4066","COUNTRY_CODE":"US","INCLINATION":"53.0532","CENTER_NAME":"EARTH","MEAN_MOTION_DOT":"0.00019930","RA_OF_ASC_NODE":"268.6105","FILE":"3579752","NORAD_CAT_ID":"45561","MEAN_MOTION":"15.16705662","REF_FRAME":"TEME","EPHEMERIS_TYPE":"0","REV_AT_EPOCH":"13607","TLE_LINE1":"1 45561U 20025AG  22264.74402529  .00019930  00000-0  10178-2 0  9990","ECCENTRICITY":"0.00024350","MEAN_MOTION_DDOT":"0.0000000000000","APOAPSIS":"517.486"},{"BSTAR":"0.00003248300000","ARG_OF_PERICENTER":"80.3134","OBJECT_ID":"2020-025AH","GP_ID":"213187295","DECAY_DATE":null,"CLASSIFICATION_TYPE":"U","OBJECT_NAME":"STARLINK-1354","PERIAPSIS":"546.422","OBJECT_TYPE":"PAYLOAD","RCS_SIZE":"LARGE","ELEMENT_SET_NO":"999","SITE":"AFETR","TIME_SYSTEM":"UTC","TLE_LINE2":"2 45562  53.0575   7.1875 0001180  80.3134 279.7988 15.06391621134648","MEAN_MOTION_DDOT":"0.0000000000000","ECCENTRICITY":"0.00011800","TLE_LINE1":"1 45562U 20025AH  22264.29435528  .00000202  00000-0  32483-4 0  9993","REV_AT_EPOCH":"13464","APOAPSIS":"548.056","LAUNCH_DATE":"2020-04-22","EPOCH":"2022-09-21T07:03:52.296192","PERIOD":"95.593","INCLINATION":"53.0575","COUNTRY_CODE":"US","SEMIMAJOR_AXIS":"6925.374","MEAN_ANOMALY":"279.7988","MEAN_ELEMENT_THEORY":"SGP4","NORAD_CAT_ID":"45562","FILE":"3579752","MEAN_MOTION":"15.06391621","RA_OF_ASC_NODE":"7.1875","CENTER_NAME":"EARTH","MEAN_MOTION_DOT":"0.00000202","EPHEMERIS_TYPE":"0","REF_FRAME":"TEME"},{"CLASSIFICATION_TYPE":"U","DECAY_DATE":null,"OBJECT_NAME":"STARLINK-1355","ARG_OF_PERICENTER":"88.9639","BSTAR":"0.00008274700000","GP_ID":"213188045","OBJECT_ID":"2020-025AJ","PERIAPSIS":"546.393","RCS_SIZE":"LARGE","OBJECT_TYPE":"PAYLOAD","TLE_LINE2":"2 45563  53.0551   5.9326 0001205  88.9639 271.1488 15.06395347134686","TIME_SYSTEM":"UTC","SITE":"AFETR","ELEMENT_SET_NO":"999","APOAPSIS":"548.062","MEAN_MOTION_DDOT":"0.0000000000000","REV_AT_EPOCH":"13468","TLE_LINE1":"1 45563U 20025AJ  22264.57447602  .00000951  00000-0  82747-4 0  9990","ECCENTRICITY":"0.00012050","COUNTRY_CODE":"US","INCLINATION":"53.0551","SEMIMAJOR_AXIS":"6925.363","MEAN_ANOMALY":"271.1488","MEAN_ELEMENT_THEORY":"SGP4","LAUNCH_DATE":"2020-04-22","PERIOD":"95.592","EPOCH":"2022-09-21T13:47:14.728128","EPHEMERIS_TYPE":"0","REF_FRAME":"TEME","NORAD_CAT_ID":"45563","FILE":"3579752","MEAN_MOTION":"15.06395347","MEAN_MOTION_DOT":"0.00000951","CENTER_NAME":"EARTH","RA_OF_ASC_NODE":"5.9326"},{"PERIAPSIS":"546.190","DECAY_DATE":null,"OBJECT_NAME":"STARLINK-1356","CLASSIFICATION_TYPE":"U","BSTAR":"-0.00008012800000","ARG_OF_PERICENTER":"79.5552","OBJECT_ID":"2020-025AK","GP_ID":"213188296","TLE_LINE2":"2 45564  53.0563   6.8535 0001480  79.5552 280.5603 15.06399595134656","ELEMENT_SET_NO":"999","TIME_SYSTEM":"UTC","SITE":"AFETR","RCS_SIZE":"LARGE","OBJECT_TYPE":"PAYLOAD","APOAPSIS":"548.240","MEAN_MOTION_DDOT":"0.0000000000000","ECCENTRICITY":"0.00014800","TLE_LINE1":"1 45564U 20025AK  22264.37175399 -.00001475  00000-0 -80128-4 0  9995","REV_AT_EPOCH":"13465","EPHEMERIS_TYPE":"0","REF_FRAME":"TEME","FILE":"3579752","NORAD_CAT_ID":"45564","MEAN_MOTION":"15.06399595","RA_OF_ASC_NODE":"6.8535","CENTER_NAME":"EARTH","MEAN_MOTION_DOT":"-0.00001475","INCLINATION":"53.0563","COUNTRY_CODE":"US","SEMIMAJOR_AXIS":"6925.350","MEAN_ANOMALY":"280.5603","MEAN_ELEMENT_THEORY":"SGP4","LAUNCH_DATE":"2020-04-22","EPOCH":"2022-09-21T08:55:19.544736","PERIOD":"95.592"},{"SEMIMAJOR_AXIS":"6925.385","MEAN_ANOMALY":"283.6877","MEAN_ELEMENT_THEORY":"SGP4","INCLINATION":"53.0569","COUNTRY_CODE":"US","PERIOD":"95.593","EPOCH":"2022-09-21T16:42:24.329952","LAUNCH_DATE":"2020-04-22","REF_FRAME":"TEME","EPHEMERIS_TYPE":"0","RA_OF_ASC_NODE":"5.3957","MEAN_MOTION_DOT":"-0.00000242","CENTER_NAME":"EARTH","MEAN_MOTION":"15.06388020","FILE":"3579752","NORAD_CAT_ID":"45565","APOAPSIS":"548.152","ECCENTRICITY":"0.00013020","REV_AT_EPOCH":"13470","TLE_LINE1":"1 45565U 20025AL  22264.69611493 -.00000242  00000-0  26408-5 0  9993","MEAN_MOTION_DDOT":"0.0000000000000","RCS_SIZE":"LARGE","OBJECT_TYPE":"PAYLOAD","TLE_LINE2":"2 45565  53.0569   5.3957 0001302  76.4257 283.6877 15.06388020134700","ELEMENT_SET_NO":"999","SITE":"AFETR","TIME_SYSTEM":"UTC","DECAY_DATE":null,"OBJECT_NAME":"STARLINK-1357","CLASSIFICATION_TYPE":"U","OBJECT_ID":"2020-025AL","GP_ID":"213189039","BSTAR":"0.00000264080000","ARG_OF_PERICENTER":"76.4257","PERIAPSIS":"546.349"},{"PERIAPSIS":"546.251","DECAY_DATE":null,"CLASSIFICATION_TYPE":"U","OBJECT_NAME":"STARLINK-1358","BSTAR":"-0.00000263690000","ARG_OF_PERICENTER":"82.7664","OBJECT_ID":"2020-025AM","GP_ID":"213187795","TLE_LINE2":"2 45566  53.0571   5.9373 0001437  82.7664 277.3488 15.06389408134689","ELEMENT_SET_NO":"999","TIME_SYSTEM":"UTC","SITE":"AFETR","RCS_SIZE":"LARGE","OBJECT_TYPE":"PAYLOAD","APOAPSIS":"548.241","MEAN_MOTION_DDOT":"0.0000000000000","ECCENTRICITY":"0.00014370","TLE_LINE1":"1 45566U 20025AM  22264.57816015 -.00000321  00000-0 -26369-5 0  9993","REV_AT_EPOCH":"13468","EPHEMERIS_TYPE":"0","REF_FRAME":"TEME","MEAN_MOTION":"15.06389408","FILE":"3579752","NORAD_CAT_ID":"45566","RA_OF_ASC_NODE":"5.9373","MEAN_MOTION_DOT":"-0.00000321","CENTER_NAME":"EARTH","INCLINATION":"53.0571","COUNTRY_CODE":"US","MEAN_ANOMALY":"277.3488","SEMIMAJOR_AXIS":"6925.381","MEAN_ELEMENT_THEORY":"SGP4","LAUNCH_DATE":"2020-04-22","EPOCH":"2022-09-21T13:52:33.036960","PERIOD":"95.593"},{"LAUNCH_DATE":"2020-04-22","EPOCH":"2022-09-21T07:46:18.936192","PERIOD":"95.592","INCLINATION":"53.0561","COUNTRY_CODE":"US","MEAN_ANOMALY":"279.4872","SEMIMAJOR_AXIS":"6925.363","MEAN_ELEMENT_THEORY":"SGP4","MEAN_MOTION":"15.06395279","FILE":"3579752","NORAD_CAT_ID":"45567","RA_OF_ASC_NODE":"7.0540","MEAN_MOTION_DOT":"0.00000702","CENTER_NAME":"EARTH","EPHEMERIS_TYPE":"0","REF_FRAME":"TEME","MEAN_MOTION_DDOT":"0.0000000000000","ECCENTRICITY":"0.00014290","REV_AT_EPOCH":"13465","TLE_LINE1":"1 45567U 20025AN  22264.32383028  .00000702  00000-0  66056-4 0  9997","APOAPSIS":"548.218","OBJECT_TYPE":"PAYLOAD","RCS_SIZE":"LARGE","ELEMENT_SET_NO":"999","TIME_SYSTEM":"UTC","SITE":"AFETR","TLE_LINE2":"2 45567  53.0561   7.0540 0001429  80.6278 279.4872 15.06395279134657","BSTAR":"0.00006605600000","ARG_OF_PERICENTER":"80.6278","OBJECT_ID":"2020-025AN","GP_ID":"213187545","CLASSIFICATION_TYPE":"U","DECAY_DATE":null,"OBJECT_NAME":"STARLINK-1361","PERIAPSIS":"546.238"},{"PERIOD":"95.592","EPOCH":"2022-09-21T08:07:35.524704","LAUNCH_DATE":"2020-04-22","MEAN_ANOMALY":"277.0523","SEMIMAJOR_AXIS":"6925.343","MEAN_ELEMENT_THEORY":"SGP4","INCLINATION":"53.0567","COUNTRY_CODE":"US","RA_OF_ASC_NODE":"7.2466","MEAN_MOTION_DOT":"-0.00001009","CENTER_NAME":"EARTH","FILE":"3579752","NORAD_CAT_ID":"45568","MEAN_MOTION":"15.06401717","REF_FRAME":"TEME","EPHEMERIS_TYPE":"0","ECCENTRICITY":"0.00013380","REV_AT_EPOCH":"13464","TLE_LINE1":"1 45568U 20025AP  22264.33860561 -.00001009  00000-0 -48827-4 0  9990","MEAN_MOTION_DDOT":"0.0000000000000","APOAPSIS":"548.135","OBJECT_TYPE":"PAYLOAD","RCS_SIZE":"LARGE","ELEMENT_SET_NO":"999","TIME_SYSTEM":"UTC","SITE":"AFETR","TLE_LINE2":"2 45568  53.0567   7.2466 0001338  83.0618 277.0523 15.06401717134648","OBJECT_ID":"2020-025AP","GP_ID":"213188797","BSTAR":"-0.00004882700000","ARG_OF_PERICENTER":"83.0618","OBJECT_NAME":"STARLINK-1363","DECAY_DATE":null,"CLASSIFICATION_TYPE":"U","PERIAPSIS":"546.282"}];
